GLOBALSTAR M040         
1 25622U 99004B   25194.46363503 -.00000058  00000+0  25540-3 0  9992
2 25622  51.9937 337.6236 0001665  99.0024 302.4725 12.62012789218579
GLOBALSTAR M036         
1 25623U 99004C   25194.43281091 -.00000096  00000+0 -19389-3 0  9998
2 25623  51.9939 171.1429 0011041 100.5536  67.3890 11.86608323182099
GLOBALSTAR M038         
1 25624U 99004D   25194.53564352 -.00000089  00000+0  53601-4 0  9991
2 25624  51.9994 355.6915 0002707 105.2658 327.5910 12.32529054205585
GLOBALSTAR M022         
1 25649U 99012A   25194.53139030 -.00000111  00000+0 -28917-3 0  9996
2 25649  52.0011 219.2872 0002708 225.7633 301.0130 12.02501633179540
GLOBALSTAR M041         
1 25650U 99012B   25194.19496928 -.00000061  00000+0  31782-3 0  9999
2 25650  52.0016 102.4465 0002049  17.7778 342.3130 11.96682078181394
GLOBALSTAR M046         
1 25651U 99012C   25194.40109977 -.00000173  00000+0 -92536-3 0  9998
2 25651  52.0025 168.8166 0002293 310.4464 210.8379 12.09410056186833
GLOBALSTAR M037         
1 25652U 99012D   25194.48656794 -.00000112  00000+0 -44857-4 0  9998
2 25652  52.0007 103.9693 0001459 256.4990 275.0204 12.62447836214595
